{
  "norad_id": 67191,
  "name": "STARLINK-35716",
  "history": [
    {
      "epoch": "2026-03-28T08:19:49.207584Z",
      "apogee_km": 483.3052472932659,
      "perigee_km": 482.7232844428936,
      "latitude_deg": 2.1069918895395383e-05,
      "longitude_deg": -104.95415956243063,
      "height_km": 483.0719334885867,
      "semi_major_axis_km": 6861.1512658680795,
      "eccentricity": 4.241e-05,
      "inclination_deg": 43.002,
      "raan_deg": 205.7697,
      "arg_perigee_deg": 194.293,
      "mean_anomaly_deg": 165.791,
      "mean_motion_rev_day": 15.27591632
    },
    {
      "epoch": "2026-03-29T23:33:43.223328Z",
      "apogee_km": 484.8833908811548,
      "perigee_km": 481.0699838937053,
      "latitude_deg": -1.0391911963431295e-05,
      "longitude_deg": 15.726254052688445,
      "height_km": 482.4511916157226,
      "semi_major_axis_km": 6861.11368738743,
      "eccentricity": 0.0002779,
      "inclination_deg": 42.9999,
      "raan_deg": 196.5364,
      "arg_perigee_deg": 279.1504,
      "mean_anomaly_deg": 80.9033,
      "mean_motion_rev_day": 15.27604182
    }
  ]
}